NORAD_CAT_ID,OBJECT_NAME,OBJECT_TYPE,EPOCH,MEAN_MOTION,ECCENTRICITY,INCLINATION,RA_OF_ASC_NODE,ARG_OF_PERICENTER,MEAN_ANOMALY,BSTAR,MEAN_MOTION_DOT,MEAN_MOTION_DDOT,TLE_LINE0,TLE_LINE1,TLE_LINE2,SEMIMAJOR_AXIS,PERIOD,APOGEE,PERIGEE,DECAYED
52273.0,STARLINK-3782,PAYLOAD,2023-05-28 06:18:07,15.08842699,9.22e-05,53.218,341.6813,81.2637,278.8459,7.6906e-05,9.37e-06,0.0,0 STARLINK-3782,1 52273U 22041N   23148.26258409  .00000937  00000-0  76906-4 0  9993,2 52273  53.2180 341.6813 0000922  81.2637 278.8459 15.08842699 62289,6917.872,95.437,540.375,539.099,0.0
52273.0,STARLINK-3782,PAYLOAD,2023-05-28 19:01:12,15.08846244,8.76e-05,53.2174,339.3029,80.1386,279.9705,8.1439e-05,1.009e-05,0.0,0 STARLINK-3782,1 52273U 22041N   23148.79250077  .00001009  00000-0  81439-4 0  9992,2 52273  53.2174 339.3029 0000876  80.1386 279.9705 15.08846244 61142,6917.861,95.437,540.332,539.12,0.0
52273.0,STARLINK-3782,PAYLOAD,2023-05-28 22:11:57,15.08850213,9.17e-05,53.2173,338.7076,81.6157,278.4939,0.0001179,1.59e-05,0.0,0 STARLINK-3782,1 52273U 22041N   23148.92497674  .00001590  00000-0  11790-3 0  9990,2 52273  53.2173 338.7076 0000917  81.6157 278.4939 15.08850213 62385,6917.849,95.437,540.349,539.08,0.0
52273.0,STARLINK-3782,PAYLOAD,2023-05-29 06:08:54,15.08840822,9.56e-05,53.2164,337.2194,86.075,274.0351,3.3471e-05,2.45e-06,0.0,0 STARLINK-3782,1 52273U 22041N   23149.25618394  .00000245  00000-0  33471-4 0  9998,2 52273  53.2164 337.2194 0000956  86.0750 274.0351 15.08840822 62432,6917.878,95.438,540.404,539.082,0.0
52273.0,STARLINK-3782,PAYLOAD,2023-05-29 12:30:26,15.08838667,0.0001045,53.217,336.0289,95.8409,264.2702,2.6038e-05,1.27e-06,0.0,0 STARLINK-3782,1 52273U 22041N   23149.52114535  .00000127  00000-0  26038-4 0  9996,2 52273  53.2170 336.0289 0001045  95.8409 264.2702 15.08838667 61254,6917.884,95.438,540.472,539.027,0.0
52273.0,STARLINK-3782,PAYLOAD,2023-05-29 18:51:59,15.08839289,9.16e-05,53.2176,334.8421,90.7303,269.3794,-1.1282e-05,-4.67e-06,0.0,0 STARLINK-3782,1 52273U 22041N   23149.78610668 -.00000467  00000-0 -11282-4 0  9996,2 52273  53.2176 334.8421 0000916  90.7303 269.3794 15.08839289 61299,6917.883,95.438,540.381,539.114,0.0
52273.0,STARLINK-3782,PAYLOAD,2023-05-30 18:42:46,15.08843489,9.19e-05,53.2175,330.3811,93.3023,266.8074,4.0161e-05,3.52e-06,0.0,0 STARLINK-3782,1 52273U 22041N   23150.77970216  .00000352  00000-0  40161-4 0  9994,2 52273  53.2175 330.3811 0000919  93.3023 266.8074 15.08843489 62665,6917.87,95.437,540.37,539.099,0.0
52273.0,STARLINK-3782,PAYLOAD,2023-05-31 12:12:01,15.08834333,9.12e-05,53.218,327.1099,98.7247,261.3848,6.2586e-05,7.08e-06,0.0,0 STARLINK-3782,1 52273U 22041N   23151.50834791  .00000708  00000-0  62586-4 0  9993,2 52273  53.2180 327.1099 0000912  98.7247 261.3848 15.08834333 61557,6917.898,95.438,540.394,539.132,0.0
52273.0,STARLINK-3782,PAYLOAD,2023-05-31 18:33:33,15.08824718,8.56e-05,53.2183,325.922,95.7407,264.3683,0.00029889,4.47e-05,0.0,0 STARLINK-3782,1 52273U 22041N   23151.77331007  .00004470  00000-0  29889-3 0  9992,2 52273  53.2183 325.9220 0000856  95.7407 264.3683 15.08824718 62810,6917.927,95.439,540.384,539.2,0.0
52273.0,STARLINK-3782,PAYLOAD,2023-06-01 04:05:52,15.08837725,7.18e-05,53.2172,324.1392,85.7427,274.3647,2.7811e-05,1.55e-06,0.0,0 STARLINK-3782,1 52273U 22041N   23152.17074847  .00000155  00000-0  27811-4 0  9993,2 52273  53.2172 324.1392 0000718  85.7427 274.3647 15.08837725 61651,6917.887,95.438,540.249,539.256,0.0
52273.0,STARLINK-3782,PAYLOAD,2023-06-02 11:53:36,15.08831932,0.0001101,53.2191,318.1931,103.5365,256.575,4.3002e-06,-2.19e-06,0.0,0 STARLINK-3782,1 52273U 22041N   23153.49555654 -.00000219  00000-0  43002-5 0  9992,2 52273  53.2191 318.1931 0001101 103.5365 256.5750 15.08831932 61854,6917.905,95.438,540.532,539.008,0.0
52273.0,STARLINK-3782,PAYLOAD,2023-06-02 18:15:08,15.08834837,9.03e-05,53.217,317.0014,97.7229,262.3866,6.1649e-06,-1.9e-06,0.0,0 STARLINK-3782,1 52273U 22041N   23153.76051496 -.00000190  00000-0  61649-5 0  9992,2 52273  53.2170 317.0014 0000903  97.7229 262.3866 15.08834837 63114,6917.896,95.438,540.386,539.136,0.0
52273.0,STARLINK-3782,PAYLOAD,2023-06-03 13:19:46,15.08833596,9.81e-05,53.2173,313.4318,92.2771,267.8333,3.2917e-05,2.36e-06,0.0,0 STARLINK-3782,1 52273U 22041N   23154.55539809  .00000236  00000-0  32917-4 0  9994,2 52273  53.2173 313.4318 0000981  92.2771 267.8333 15.08833596 62010,6917.9,95.438,540.444,539.086,0.0
52273.0,STARLINK-3782,PAYLOAD,2023-06-03 19:41:18,15.08841418,8.79e-05,53.2173,312.2424,87.4434,272.6658,4.8003e-05,4.76e-06,0.0,0 STARLINK-3782,1 52273U 22041N   23154.82035315  .00000476  00000-0  48003-4 0  9996,2 52273  53.2173 312.2424 0000879  87.4434 272.6658 15.08841418 62053,6917.876,95.437,540.349,539.133,0.0
52273.0,STARLINK-3782,PAYLOAD,2023-06-03 22:52:04,15.08844253,8.8e-05,53.2173,311.6475,86.9399,273.1693,0.00010273,1.348e-05,0.0,0 STARLINK-3782,1 52273U 22041N   23154.95282950  .00001348  00000-0  10273-3 0  9995,2 52273  53.2173 311.6475 0000880  86.9399 273.1693 15.08844253 63290,6917.867,95.437,540.341,539.124,0.0
52273.0,STARLINK-3782,PAYLOAD,2023-06-04 09:59:47,15.08833906,8.56e-05,53.2173,309.5662,82.7646,277.3443,0.00010755,1.424e-05,0.0,0 STARLINK-3782,1 52273U 22041N   23155.41651649  .00001424  00000-0  10755-3 0  9992,2 52273  53.2173 309.5662 0000856  82.7646 277.3443 15.08833906 63366,6917.899,95.438,540.356,539.172,0.0
52273.0,STARLINK-3782,PAYLOAD,2023-06-04 13:10:33,15.08835972,8.29e-05,53.217,308.9721,82.6237,277.4849,0.00011142,1.486e-05,0.0,0 STARLINK-3782,1 52273U 22041N   23155.54899526  .00001486  00000-0  11142-3 0  9993,2 52273  53.2170 308.9721 0000829  82.6237 277.4849 15.08835972 62160,6917.893,95.438,540.331,539.184,0.0
52273.0,STARLINK-3782,PAYLOAD,2023-06-04 17:56:42,15.08843865,9.21e-05,53.2173,308.0799,77.7674,282.3421,0.00011293,1.51e-05,0.0,0 STARLINK-3782,1 52273U 22041N   23155.74771080  .00001510  00000-0  11293-3 0  9994,2 52273  53.2173 308.0799 0000921  77.7674 282.3421 15.08843865 63412,6917.869,95.437,540.371,539.096,0.0
52273.0,STARLINK-3782,PAYLOAD,2023-06-04 19:32:05,15.08846382,8.99e-05,53.2174,307.7826,77.0468,283.0624,0.00013255,1.823e-05,0.0,0 STARLINK-3782,1 52273U 22041N   23155.81394845  .00001823  00000-0  13255-3 0  9999,2 52273  53.2174 307.7826 0000899  77.0468 283.0624 15.08846382 62204,6917.861,95.437,540.348,539.104,0.0
52273.0,STARLINK-3782,PAYLOAD,2023-06-05 03:29:01,15.08841619,9.72e-05,53.2172,306.2959,74.2855,285.8244,8.8306e-05,1.118e-05,0.0,0 STARLINK-3782,1 52273U 22041N   23156.14515251  .00001118  00000-0  88306-4 0  9999,2 52273  53.2172 306.2959 0000972  74.2855 285.8244 15.08841619 62255,6917.875,95.437,540.413,539.068,0.0
52273.0,STARLINK-3782,PAYLOAD,2023-06-05 20:58:15,15.08850094,8.94e-05,53.2173,303.0233,94.4792,265.6303,0.00010198,1.336e-05,0.0,0 STARLINK-3782,1 52273U 22041N   23156.87378478  .00001336  00000-0  10198-3 0  9992,2 52273  53.2173 303.0233 0000894  94.4792 265.6303 15.08850094 62364,6917.85,95.437,540.333,539.096,0.0
52273.0,STARLINK-3782,PAYLOAD,2023-06-06 09:41:21,15.08834598,9.51e-05,53.2175,300.646,76.8781,283.2318,2.9711e-05,1.85e-06,0.0,0 STARLINK-3782,1 52273U 22041N   23157.40371715  .00000185  00000-0  29711-4 0  9992,2 52273  53.2175 300.6460 0000951  76.8781 283.2318 15.08834598 63664,6917.897,95.438,540.42,539.104,0.0
52273.0,STARLINK-3782,PAYLOAD,2023-06-06 12:52:07,15.08840082,9.58e-05,53.2174,300.0519,80.4302,279.6798,1.057e-05,-1.2e-06,0.0,0 STARLINK-3782,1 52273U 22041N   23157.53619421 -.00000120  00000-0  10570-4 0  9998,2 52273  53.2174 300.0519 0000958  80.4302 279.6798 15.08840082 62462,6917.88,95.438,540.408,539.082,0.0
52273.0,STARLINK-3782,PAYLOAD,2023-06-06 16:02:53,15.0884482,9.95e-05,53.2167,299.4551,94.7084,265.4022,-1.6861e-07,-2.9e-06,0.0,0 STARLINK-3782,1 52273U 22041N   23157.66867097 -.00000290  00000-0 -16861-6 0  9996,2 52273  53.2167 299.4551 0000995  94.7084 265.4022 15.08844820 63702,6917.866,95.437,540.419,539.042,0.0
52273.0,STARLINK-3782,PAYLOAD,2023-06-07 20:39:49,15.08840637,8.94e-05,53.217,294.1061,75.1934,284.9157,-6.81e-05,-1.371e-05,0.0,0 STARLINK-3782,1 52273U 22041N   23158.86099506 -.00001371  00000-0 -68100-4 0  9993,2 52273  53.2170 294.1061 0000894  75.1934 284.9157 15.08840637 62660,6917.878,95.438,540.362,539.125,0.0
52273.0,STARLINK-3782,PAYLOAD,2023-06-08 09:22:55,15.08830499,0.0001036,53.2177,291.7253,90.6574,269.4537,3.7014e-05,3.01e-06,0.0,0 STARLINK-3782,1 52273U 22041N   23159.39092061  .00000301  00000-0  37014-4 0  9991,2 52273  53.2177 291.7253 0001036  90.6574 269.4537 15.08830499 63963,6917.909,95.438,540.491,539.058,0.0
52273.0,STARLINK-3782,PAYLOAD,2023-06-08 12:33:41,15.08829865,0.0001069,53.2171,291.132,76.2813,283.8298,4.5714e-05,4.4e-06,0.0,0 STARLINK-3782,1 52273U 22041N   23159.52340160  .00000440  00000-0  45714-4 0  9992,2 52273  53.2171 291.1320 0001069  76.2813 283.8298 15.08829865 62764,6917.911,95.438,540.516,539.037,0.0
52273.0,STARLINK-3782,PAYLOAD,2023-06-08 15:44:27,15.08838107,8.7e-05,53.2163,290.5377,90.2547,269.8545,0.00010571,1.395e-05,0.0,0 STARLINK-3782,1 52273U 22041N   23159.65587400  .00001395  00000-0  10571-3 0  9998,2 52273  53.2163 290.5377 0000870  90.2547 269.8545 15.08838107 64006,6917.886,95.438,540.353,539.149,0.0
52273.0,STARLINK-3782,PAYLOAD,2023-06-09 15:35:15,15.08838136,6.73e-05,53.2156,286.0768,103.521,256.5857,3.0758e-06,-2.39e-06,0.0,0 STARLINK-3782,1 52273U 22041N   23160.64947935 -.00000239  00000-0  30758-5 0  9990,2 52273  53.2156 286.0768 0000673 103.5210 256.5857 15.08838136 64155,6917.886,95.438,540.217,539.286,0.0
52273.0,STARLINK-3782,PAYLOAD,2023-06-10 09:04:30,15.08829251,9.12e-05,53.2169,282.8043,101.8901,258.2193,4.3266e-05,4.01e-06,0.0,0 STARLINK-3782,1 52273U 22041N   23161.37812584  .00000401  00000-0  43266-4 0  9999,2 52273  53.2169 282.8043 0000912 101.8901 258.2193 15.08829251 64265,6917.913,95.438,540.409,539.147,0.0
